NORAD_CAT_ID,OBJECT_NAME,OBJECT_TYPE,EPOCH,MEAN_MOTION,ECCENTRICITY,INCLINATION,RA_OF_ASC_NODE,ARG_OF_PERICENTER,MEAN_ANOMALY,BSTAR,MEAN_MOTION_DOT,MEAN_MOTION_DDOT,TLE_LINE0,TLE_LINE1,TLE_LINE2,SEMIMAJOR_AXIS,PERIOD,APOGEE,PERIGEE,DECAYED
50803.0,STARLINK-3321,PAYLOAD,2024-08-04 12:53:27,15.08844475,0.0001443,53.216,262.5031,87.6021,272.5136,0.00019859,2.874e-05,0.0,0 STARLINK-3321,1 50803U 22001A   24217.53712895  .00002874  00000-0  19859-3 0  9993,2 50803  53.2160 262.5031 0001443  87.6021 272.5136 15.08844475143796,6917.867,95.437,540.73,538.733,0.0
50803.0,STARLINK-3321,PAYLOAD,2024-08-05 09:33:28,15.08844656,0.0001574,53.2161,258.6355,94.2843,265.8329,8.8591e-05,1.122e-05,0.0,0 STARLINK-3321,1 50803U 22001A   24218.39824987  .00001122  00000-0  88591-4 0  9999,2 50803  53.2161 258.6355 0001574  94.2843 265.8329 15.08844656143928,6917.866,95.437,540.82,538.642,0.0
50803.0,STARLINK-3321,PAYLOAD,2024-08-06 06:13:31,15.08828719,0.0001451,53.2165,254.7696,102.1043,258.0112,-6.44e-05,-1.312e-05,0.0,0 STARLINK-3321,1 50803U 22001A   24219.25938668 -.00001312  00000-0 -64400-4 0  9993,2 50803  53.2165 254.7696 0001451 102.1043 258.0112 15.08828719144053,6917.915,95.438,540.784,538.776,0.0
50803.0,STARLINK-3321,PAYLOAD,2024-08-06 18:56:35,15.0883359,0.0001265,53.2158,252.3883,85.3418,274.7718,-1.129e-06,-3.06e-06,0.0,0 STARLINK-3321,1 50803U 22001A   24219.78930463 -.00000306  00000-0 -11290-5 0  9998,2 50803  53.2158 252.3883 0001265  85.3418 274.7718 15.08833590144137,6917.9,95.438,540.64,538.89,0.0
50803.0,STARLINK-3321,PAYLOAD,2024-08-07 12:25:49,15.08847419,0.0001303,53.2159,249.1213,97.2175,262.8966,8.1419e-05,1.008e-05,0.0,0 STARLINK-3321,1 50803U 22001A   24220.51793716  .00001008  00000-0  81419-4 0  9996,2 50803  53.2159 249.1213 0001303  97.2175 262.8966 15.08847419144244,6917.858,95.437,540.624,538.821,0.0
50803.0,STARLINK-3321,PAYLOAD,2024-08-08 10:41:13,15.08844812,0.0001335,53.2158,244.9578,99.4681,260.6462,0.00025626,3.793e-05,0.0,0 STARLINK-3321,1 50803U 22001A   24221.44530074  .00003793  00000-0  25626-3 0  9995,2 50803  53.2158 244.9578 0001335  99.4681 260.6462 15.08844812143117,6917.866,95.437,540.654,538.807,0.0
50803.0,STARLINK-3321,PAYLOAD,2024-08-09 00:59:42,15.08840119,0.0001498,53.2154,242.2813,101.1693,258.9468,0.00021256,3.097e-05,0.0,0 STARLINK-3321,1 50803U 22001A   24222.04146368  .00003097  00000-0  21256-3 0  9993,2 50803  53.2154 242.2813 0001498 101.1693 258.9468 15.08840119144472,6917.88,95.438,540.781,538.709,0.0
50803.0,STARLINK-3321,PAYLOAD,2024-08-09 08:56:37,15.0884776,0.0001538,53.2162,240.7945,100.5766,259.54,9.9848e-05,1.302e-05,0.0,0 STARLINK-3321,1 50803U 22001A   24222.37266085  .00001302  00000-0  99848-4 0  9998,2 50803  53.2162 240.7945 0001538 100.5766 259.5400 15.08847760143256,6917.857,95.437,540.786,538.658,0.0
50803.0,STARLINK-3321,PAYLOAD,2024-08-09 18:28:57,15.08842798,0.0001493,53.2161,239.0115,87.6097,272.5066,2.7691e-06,-2.44e-06,0.0,0 STARLINK-3321,1 50803U 22001A   24222.77010569 -.00000244  00000-0  27691-5 0  9999,2 50803  53.2161 239.0115 0001493  87.6097 272.5066 15.08842798143313,6917.872,95.437,540.77,538.704,0.0
50803.0,STARLINK-3321,PAYLOAD,2024-08-10 10:22:48,15.08840914,0.0001523,53.2163,236.0357,89.8456,270.2711,6.874e-06,-1.79e-06,0.0,0 STARLINK-3321,1 50803U 22001A   24223.43250682 -.00000179  00000-0  68740-5 0  9992,2 50803  53.2163 236.0357 0001523  89.8456 270.2711 15.08840914144688,6917.878,95.437,540.796,538.689,0.0
50803.0,STARLINK-3321,PAYLOAD,2024-08-11 07:02:48,15.088525,0.0001471,53.2161,232.1711,95.9623,264.1536,0.00012078,1.635e-05,0.0,0 STARLINK-3321,1 50803U 22001A   24224.29361607  .00001635  00000-0  12078-3 0  9995,2 50803  53.2161 232.1711 0001471  95.9623 264.1536 15.08852500144819,6917.842,95.437,540.725,538.69,0.0
50803.0,STARLINK-3321,PAYLOAD,2024-08-11 18:10:30,15.08852857,0.0001264,53.2149,230.0897,90.4547,269.659,0.00012763,1.745e-05,0.0,0 STARLINK-3321,1 50803U 22001A   24224.75729398  .00001745  00000-0  12763-3 0  9994,2 50803  53.2149 230.0897 0001264  90.4547 269.6590 15.08852857143614,6917.841,95.437,540.581,538.832,0.0
50803.0,STARLINK-3321,PAYLOAD,2024-08-12 03:42:49,15.08843823,0.0001641,53.2164,228.3067,90.211,269.9071,8.2653e-05,1.028e-05,0.0,0 STARLINK-3321,1 50803U 22001A   24225.15474258  .00001028  00000-0  82653-4 0  9991,2 50803  53.2164 228.3067 0001641  90.2110 269.9071 15.08843823144940,6917.869,95.437,540.869,538.598,0.0
50803.0,STARLINK-3321,PAYLOAD,2024-08-12 06:53:35,15.08845019,0.0001591,53.2168,227.7105,96.3,263.8173,0.00019461,2.811e-05,0.0,0 STARLINK-3321,1 50803U 22001A   24225.28722134  .00002811  00000-0  19461-3 0  9991,2 50803  53.2168 227.7105 0001591  96.3000 263.8173 15.08845019143695,6917.865,95.437,540.831,538.629,0.0
50803.0,STARLINK-3321,PAYLOAD,2024-08-13 05:08:59,15.08845195,0.000169,53.2167,223.5475,94.5879,265.5307,1.3856e-05,-6.8e-07,0.0,0 STARLINK-3321,1 50803U 22001A   24226.21457743 -.00000068  00000-0  13856-4 0  9992,2 50803  53.2167 223.5475 0001690  94.5879 265.5307 15.08845195145103,6917.865,95.437,540.899,538.56,0.0
50803.0,STARLINK-3321,PAYLOAD,2024-08-13 09:55:08,15.08849383,0.000163,53.2167,222.655,91.8219,268.296,7.0199e-05,8.3e-06,0.0,0 STARLINK-3321,1 50803U 22001A   24226.41329418  .00000830  00000-0  70199-4 0  9990,2 50803  53.2167 222.6550 0001630  91.8219 268.2960 15.08849383143868,6917.852,95.437,540.844,538.589,0.0
50803.0,STARLINK-3321,PAYLOAD,2024-08-13 16:16:42,15.08830393,0.0001618,53.2156,221.461,89.8888,270.2289,0.00018046,2.584e-05,0.0,0 STARLINK-3321,1 50803U 22001A   24226.67826555  .00002584  00000-0  18046-3 0  9992,2 50803  53.2156 221.4610 0001618  89.8888 270.2289 15.08830393145179,6917.91,95.438,540.894,538.655,0.0
50803.0,STARLINK-3321,PAYLOAD,2024-08-14 06:35:10,15.08824706,0.0001503,53.2167,218.7914,98.9053,261.2109,-0.00017746,-3.11e-05,0.0,0 STARLINK-3321,1 50803U 22001A   24227.27442923 -.00003110  00000-0 -17746-3 0  9996,2 50803  53.2167 218.7914 0001503  98.9053 261.2109 15.08824706143995,6917.927,95.439,540.832,538.752,0.0
50803.0,STARLINK-3321,PAYLOAD,2024-08-15 04:50:34,15.08836226,0.0001342,53.2153,214.6285,101.6147,258.4996,0.0002067,3.003e-05,0.0,0 STARLINK-3321,1 50803U 22001A   24228.20179389  .00003003  00000-0  20670-3 0  9992,2 50803  53.2153 214.6285 0001342 101.6147 258.4996 15.08836226145403,6917.892,95.438,540.685,538.829,0.0
50803.0,STARLINK-3321,PAYLOAD,2024-08-15 06:25:58,15.08835179,0.0001314,53.2154,214.331,100.8528,259.2612,0.00030618,4.588e-05,0.0,0 STARLINK-3321,1 50803U 22001A   24228.26803560  .00004588  00000-0  30618-3 0  9995,2 50803  53.2154 214.3310 0001314 100.8528 259.2612 15.08835179144143,6917.895,95.438,540.669,538.851,0.0
50803.0,STARLINK-3321,PAYLOAD,2024-08-15 15:58:17,15.08840133,0.0001314,53.2153,212.5466,100.5446,259.5694,0.00042543,6.489e-05,0.0,0 STARLINK-3321,1 50803U 22001A   24228.66547643  .00006489  00000-0  42543-3 0  9998,2 50803  53.2153 212.5466 0001314 100.5446 259.5694 15.08840133144206,6917.88,95.438,540.654,538.836,0.0
50803.0,STARLINK-3321,PAYLOAD,2024-08-16 06:16:45,15.08850729,0.0001221,53.2141,209.8689,96.152,263.9611,0.00046031,7.048e-05,0.0,0 STARLINK-3321,1 50803U 22001A   24229.26163355  .00007048  00000-0  46031-3 0  9997,2 50803  53.2141 209.8689 0001221  96.1520 263.9611 15.08850729145569,6917.848,95.437,540.557,538.868,0.0
50803.0,STARLINK-3321,PAYLOAD,2024-08-17 04:32:08,15.08850546,0.0001221,53.2141,205.7056,93.9493,266.1638,0.00022816,3.346e-05,0.0,0 STARLINK-3321,1 50803U 22001A   24230.18898957  .00003346  00000-0  22816-3 0  9995,2 50803  53.2141 205.7056 0001221  93.9493 266.1638 15.08850546145703,6917.848,95.437,540.558,538.868,0.0
50803.0,STARLINK-3321,PAYLOAD,2024-08-17 07:42:54,15.08854295,0.0001254,53.2143,205.111,95.5329,264.5806,0.00028283,4.218e-05,0.0,0 STARLINK-3321,1 50803U 22001A   24230.32146771  .00004218  00000-0  28283-3 0  9994,2 50803  53.2143 205.1110 0001254  95.5329 264.5806 15.08854295144457,6917.837,95.437,540.569,538.834,0.0
50803.0,STARLINK-3321,PAYLOAD,2024-08-18 04:22:56,15.08840439,0.0001885,53.2174,201.2338,66.5751,293.5439,7.1256e-06,-1.75e-06,0.0,0 STARLINK-3321,1 50803U 22001A   24231.18259472 -.00000175  00000-0  71256-5 0  9991,2 50803  53.2174 201.2338 0001885  66.5751 293.5439 15.08840439145851,6917.879,95.438,541.048,538.44,0.0
50803.0,STARLINK-3321,PAYLOAD,2024-08-18 21:52:10,15.08839343,0.0001346,53.2154,197.9694,106.6889,253.4251,4.7697e-05,4.71e-06,0.0,0 STARLINK-3321,1 50803U 22001A   24231.91123355  .00000471  00000-0  47697-4 0  9991,2 50803  53.2154 197.9694 0001346 106.6889 253.4251 15.08839343144695,6917.882,95.438,540.679,538.816,0.0
50803.0,STARLINK-3321,PAYLOAD,2024-08-19 04:13:43,15.08842389,0.0001499,53.2158,196.7836,94.915,265.2013,4.9774e-05,5.04e-06,0.0,0 STARLINK-3321,1 50803U 22001A   24232.17619246  .00000504  00000-0  49774-4 0  9994,2 50803  53.2158 196.7836 0001499  94.9150 265.2013 15.08842389144739,6917.873,95.437,540.775,538.701,0.0
50803.0,STARLINK-3321,PAYLOAD,2024-08-20 04:04:30,15.08841778,0.0001462,53.2176,192.3247,99.6848,260.4309,0.00010451,1.376e-05,0.0,0 STARLINK-3321,1 50803U 22001A   24233.16979192  .00001376  00000-0  10451-3 0  9990,2 50803  53.2176 192.3247 0001462  99.6848 260.4309 15.08841778146157,6917.875,95.437,540.751,538.729,0.0
50803.0,STARLINK-3321,PAYLOAD,2024-08-21 03:55:17,15.08820106,0.0001586,53.2177,187.8634,100.1986,259.9185,0.00041412,6.305e-05,0.0,0 STARLINK-3321,1 50803U 22001A   24234.16339919  .00006305  00000-0  41412-3 0  9996,2 50803  53.2177 187.8634 0001586 100.1986 259.9185 15.08820106146309,6917.941,95.439,540.903,538.709,0.0
50803.0,STARLINK-3321,PAYLOAD,2024-08-21 19:49:08,15.08830298,0.0001312,53.218,184.8931,100.4084,259.7056,0.00014401,2.004e-05,0.0,0 STARLINK-3321,1 50803U 22001A   24234.82579803  .00002004  00000-0  14401-3 0  9997,2 50803  53.2180 184.8931 0001312 100.4084 259.7056 15.08830298145137,6917.91,95.438,540.683,538.867,0.0
